1 45389U 20019AF  22365.19138655  .00004008  00000-0  28775-3 0  9991
2 45389  53.0545 334.2559 0002487  40.9235 319.1940 15.06411671154490
1 45389U 20019AF  22365.19138655  .00004008  00000-0  28775-3 0  9991
2 45389  53.0545 334.2559 0002487  40.9235 319.1940 15.06411671154490
1 45389U 20019AF  22365.65582038  .00003237  00000-0  23611-3 0  9997
2 45389  53.0544 332.1709 0002437  40.0840 320.0329 15.06402358154563
1 45389U 20019AF  22365.65582038  .00003237  00000-0  23611-3 0  9997
2 45389  53.0544 332.1709 0002437  40.0840 320.0329 15.06402358154563
1 45389U 20019AF  23001.12025185  .00000782  00000-0  71394-4 0  9996
2 45389  53.0541 330.0862 0002118  38.4565 321.6575 15.06399409154638
1 45389U 20019AF  23001.31929304 -.00000136  00000-0  98039-5 0  9993
2 45389  53.0536 329.1942 0002282  33.4403 326.6729 15.06397559154661
1 45389U 20019AF  23002.24815187 -.00001480  00000-0 -80476-4 0  9998
2 45389  53.0533 325.0222 0002459  43.5332 316.5850 15.06398975154805
1 45389U 20019AF  23002.57988349  .00000761  00000-0  70025-4 0  9993
2 45389  53.0532 323.5337 0002414  41.0901 319.0269 15.06402320154857
1 45389U 20019AF  23002.91162428  .00001631  00000-0  12844-3 0  9994
2 45389  53.0531 322.0446 0002326  41.1528 318.9636 15.06392689154907
1 45389U 20019AF  23003.24336101  .00001698  00000-0  13293-3 0  9994
2 45389  53.0538 320.5550 0002336  40.5563 319.5600 15.06393737154954
1 45389U 20019AF  23003.57509478  .00003373  00000-0  24527-3 0  9993
2 45389  53.0549 319.0656 0002502  42.5851 317.5331 15.06396743155009
1 45389U 20019AF  23004.10586315  .00004038  00000-0  28980-3 0  9994
2 45389  53.0535 316.6836 0002169  47.6740 312.4433 15.06408423155083
1 45389U 20019AF  23004.57029677 -.00001176  00000-0 -60066-4 0  9992
2 45389  53.0544 314.5940 0002451  51.2364 308.8844 15.06393559155159
1 45389U 20019AF  23004.57029677 -.00001176  00000-0 -60066-4 0  9992
2 45389  53.0544 314.5940 0002451  51.2364 308.8844 15.06393559155159
1 45389U 20019AF  23005.56550618  .00000731  00000-0  67999-4 0  9992
2 45389  53.0536 310.1306 0002256  50.2831 309.8356 15.06392748155304
1 45389U 20019AF  23005.83089820 -.00002101  00000-0 -12220-3 0  9995
2 45389  53.0530 308.9387 0002179  54.4091 305.7100 15.06383435155349
1 45389U 20019AF  23006.22898100  .00001487  00000-0  11876-3 0  9998
2 45389  53.0522 307.1510 0002200  56.8687 303.2513 15.06390456155400
1 45389U 20019AF  23006.82610803  .00003971  00000-0  28540-3 0  9992
2 45389  53.0519 304.4701 0002196  63.7976 296.3238 15.06391548155498
1 45389U 20019AF  23007.22418818  .00007708  00000-0  53577-3 0  9999
2 45389  53.0529 302.6837 0002154  64.0985 296.0225 15.06402384155558
1 45389U 20019AF  23007.82131068  .00005168  00000-0  36556-3 0  9990
2 45389  53.0526 300.0040 0001913  61.0543 299.0638 15.06401669155648
1 45389U 20019AF  23007.82131068  .00005168  00000-0  36556-3 0  9990
2 45389  53.0526 300.0040 0001913  61.0543 299.0638 15.06401669155648
1 45389U 20019AF  23008.48477390  .00001403  00000-0  11309-3 0  9991
2 45389  53.0530 297.0235 0002274  71.3393 288.7842 15.06400561155745
1 45389U 20019AF  23008.81651718 -.00002612  00000-0 -15656-3 0  9990
2 45389  53.0532 295.5361 0001858  77.2290 282.8906 15.06387309155793
1 45389U 20019AF  23008.81651718 -.00002612  00000-0 -15656-3 0  9990
2 45389  53.0532 295.5361 0001858  77.2290 282.8906 15.06387309155793
1 45389U 20019AF  23009.47999056  .00001709  00000-0  13365-3 0  9992
2 45389  53.0536 292.5581 0001680  77.5474 282.5702 15.06390658155891
1 45389U 20019AF  23009.74537802  .00002835  00000-0  20915-3 0  9999
2 45389  53.0536 291.3664 0001521  79.9064 280.2097 15.06393342155935
1 45389U 20019AF  23010.14345702  .00012794  00000-0  87600-3 0  9990
2 45389  53.0519 289.5790 0001955  77.4691 282.6517 15.06410697155997
1 45389U 20019AF  23010.47518871  .00008171  00000-0  56664-3 0  9995
2 45389  53.0518 288.0891 0001756  87.4936 272.6254 15.06409593156041
1 45389U 20019AF  23010.80692167  .00003544  00000-0  25663-3 0  9997
2 45389  53.0526 286.6007 0002038  87.5321 272.5901 15.06408380156092
1 45389U 20019AF  23010.80692167  .00003544  00000-0  25663-3 0  9997
2 45389  53.0526 286.6007 0002038  87.5321 272.5901 15.06408380156092
1 45389U 20019AF  23011.07230304  .00013410  00000-0  91678-3 0  9990
2 45389  53.0526 285.4099 0001877  92.0110 268.1094 15.06426758156135
1 45389U 20019AF  23011.47038581  .00012673  00000-0  86772-3 0  9996
2 45389  53.0522 283.6228 0002062  83.3511 276.7712 15.06417658156197
1 45389U 20019AF  23011.47038581  .00012673  00000-0  86772-3 0  9996
2 45389  53.0522 283.6228 0002062  83.3511 276.7712 15.06417658156197
1 45389U 20019AF  23011.73577358  .00013990  00000-0  95593-3 0  9999
2 45389  53.0495 282.4321 0002280  83.3939 276.7309 15.06411254156236
1 45389U 20019AF  23011.73577358  .00013990  00000-0  95593-3 0  9999
2 45389  53.0495 282.4321 0002280  83.3939 276.7309 15.06411254156236
1 45389U 20019AF  23012.46558815  .00006236  00000-0  43716-3 0  9992
2 45389  53.0500 279.1552 0001832  84.1883 275.9315 15.06401894156340
1 45389U 20019AF  23012.93002048  .00004664  00000-0  33181-3 0  9994
2 45389  53.0522 277.0693 0002220  88.5964 271.5279 15.06398141156416
1 45389U 20019AF  23012.99636629  .00004582  00000-0  32630-3 0  9995
2 45389  53.0519 276.7712 0001929  93.3433 266.7776 15.06397278156429
1 45389U 20019AF  23012.99636629  .00004582  00000-0  32630-3 0  9995
2 45389  53.0519 276.7712 0001929  93.3433 266.7776 15.06397278156429
1 45389U 20019AF  23014.12426129  .00009442  00000-0  65175-3 0  9994
2 45389  53.0532 271.7063 0001833  97.6275 262.4922 15.06410284156590
1 45389U 20019AF  23014.98677343  .00002060  00000-0  15720-3 0  9994
2 45389  53.0498 267.8365 0002307  95.6654 264.4598 15.06398056156726
1 45389U 20019AF  23015.05312088  .00002298  00000-0  17315-3 0  9990
2 45389  53.0533 267.5387 0001738  92.5963 267.5225 15.06399705156737
1 45389U 20019AF  23015.91562607  .00004398  00000-0  31386-3 0  9996
2 45389  53.0527 263.6667 0001674  92.6583 267.4598 15.06409326156863
1 45389U 20019AF  23015.98196872  .00006006  00000-0  42151-3 0  9990
2 45389  53.0540 263.3702 0001378  93.5384 266.5762 15.06419553156872
1 45389U 20019AF  23016.38005189  .00006081  00000-0  42667-3 0  9990
2 45389  53.0497 261.5811 0001598  89.5297 270.5875 15.06412475156939
1 45389U 20019AF  23016.38005189  .00006081  00000-0  42667-3 0  9990
2 45389  53.0497 261.5811 0001598  89.5297 270.5875 15.06412475156939
1 45389U 20019AF  23017.04353052 -.00002908  00000-0 -17648-3 0  9996
2 45389  53.0519 258.6022 0001720  78.4432 281.6750 15.06384857157039
1 45389U 20019AF  23017.37526629  .00001733  00000-0  13522-3 0  9994
2 45389  53.0531 257.1130 0001541  81.1604 278.9559 15.06388806157089
1 45389U 20019AF  23017.90604439  .00011734  00000-0  80533-3 0  9997
2 45389  53.0527 254.7303 0001517  80.8723 279.2438 15.06398598157168
1 45389U 20019AF  23017.97239061  .00013204  00000-0  90361-3 0  9993
2 45389  53.0524 254.4322 0001442  80.5001 279.6151 15.06402291157179
1 45389U 20019AF  23018.37047002  .00014184  00000-0  96889-3 0  9999
2 45389  53.0519 252.6446 0001442  79.6790 280.4361 15.06411800157230
1 45389U 20019AF  23018.90123988  .00009972  00000-0  68712-3 0  9999
2 45389  53.0518 250.2620 0001423  79.5435 280.5714 15.06416691157316
1 45389U 20019AF  23018.90123988  .00009972  00000-0  68712-3 0  9999
2 45389  53.0518 250.2620 0001423  79.5435 280.5714 15.06416691157316
1 45389U 20019AF  23019.36566538  .00005268  00000-0  37218-3 0  9993
2 45389  53.0516 248.1769 0001151  86.2200 273.8920 15.06412278157385
1 45389U 20019AF  23019.63105655 -.00002585  00000-0 -15472-3 0  9991
2 45389  53.0517 246.9857 0001042 100.9936 259.1170 15.06393878157422
1 45389U 20019AF  23019.63105655 -.00002585  00000-0 -15472-3 0  9991
2 45389  53.0517 246.9857 0001042 100.9936 259.1170 15.06393878157422
1 45389U 20019AF  23019.89644427  .00005233  00000-0  36996-3 0  9999
2 45389  53.0522 245.7950 0001450  91.5953 268.5202 15.06399863157460
1 45389U 20019AF  23019.89644427  .00005233  00000-0  36996-3 0  9999
2 45389  53.0522 245.7950 0001450  91.5953 268.5202 15.06399863157460
1 45389U 20019AF  23020.89165233  .00007901  00000-0  54873-3 0  9992
2 45389  53.0514 241.3283 0001319  90.1222 269.9918 15.06399491157613
1 45389U 20019AF  23021.28974731 -.00003148  00000-0 -19262-3 0  9991
2 45389  53.0507 239.5374 0001933  80.0122 280.1085 15.06373789157672
1 45389U 20019AF  23022.28495068  .00011850  00000-0  81308-3 0  9990
2 45389  53.0503 235.0718 0001028  94.3590 265.7516 15.06401133157823
1 45389U 20019AF  23023.61187805  .00006716  00000-0  46907-3 0  9996
2 45389  53.0523 229.1156 0001254 105.4973 254.6155 15.06418275158029
1 45389U 20019AF  23024.54072828  .00001035  00000-0  88337-4 0  9990
2 45389  53.0518 224.9451 0001267  85.4587 274.6546 15.06409409158166
1 45389U 20019AF  23025.53593185 -.00000997  00000-0 -48031-4 0  9999
2 45389  53.0520 220.4762 0001209  93.4242 266.6886 15.06399829158317
1 45389U 20019AF  23025.53593185 -.00000997  00000-0 -48031-4 0  9999
2 45389  53.0520 220.4762 0001209  93.4242 266.6886 15.06399829158317
1 45389U 20019AF  23025.80132373 -.00000284  00000-0 -19578-6 0  9992
2 45389  53.0530 219.2849 0001142  95.1310 264.9809 15.06396963158357
1 45389U 20019AF  23026.53113094  .00000502  00000-0  52606-4 0  9990
2 45389  53.0530 216.0088 0001191  86.9012 273.2113 15.06402965158461
1 45389U 20019AF  23026.66382345  .00000595  00000-0  58832-4 0  9990
2 45389  53.0530 215.4131 0001187  86.5698 273.5427 15.06403766158487
1 45389U 20019AF  23027.52633844  .00000476  00000-0  50870-4 0  9991
2 45389  53.0533 211.5403 0001228  89.4507 270.6622 15.06392635158618
1 45389U 20019AF  23027.52633844  .00000476  00000-0  50870-4 0  9991
2 45389  53.0533 211.5403 0001228  89.4507 270.6622 15.06392635158618
1 45389U 20019AF  23027.72537822  .00000598  00000-0  59050-4 0  9996
2 45389  53.0536 210.6464 0001138  94.6860 265.4259 15.06393402158642
1 45389U 20019AF  23028.18981248  .00005468  00000-0  38598-3 0  9996
2 45389  53.0535 208.5613 0001213  85.7713 274.3414 15.06372819158714
1 45389U 20019AF  23028.52153878 -.00000326  00000-0 -30034-5 0  9993
2 45389  53.0537 207.0719 0001176 100.6277 259.4844 15.06398979158768
1 45389U 20019AF  23028.52153878 -.00000326  00000-0 -30034-5 0  9993
2 45389  53.0537 207.0719 0001176 100.6277 259.4844 15.06398979158768
1 45389U 20019AF  23028.91961724 -.00000088  00000-0  12993-4 0  9990
2 45389  53.0538 205.2854 0001104  93.7942 266.3173 15.06401541158820
1 45389U 20019AF  23029.51674782 -.00000371  00000-0 -60389-5 0  9991
2 45389  53.0541 202.6049 0001078  91.6488 268.4624 15.06389729158910
1 45389U 20019AF  23029.84848045  .00000026  00000-0  20602-4 0  9990
2 45389  53.0546 201.1158 0001089  91.9714 268.1400 15.06392682158963
1 45389U 20019AF  23030.51194753  .00000358  00000-0  42923-4 0  9994
2 45389  53.0543 198.1374 0001058  90.4705 269.6405 15.06395808159061
1 45389U 20019AF  23030.51194753  .00000358  00000-0  42923-4 0  9994
2 45389  53.0543 198.1374 0001058  90.4705 269.6405 15.06395808159061
1 45389U 20019AF  23031.44080396  .00000804  00000-0  72843-4 0  9994
2 45389  53.0550 193.9680 0001220  86.0732 274.0396 15.06394431159200
